[{"OBJECT_NAME":"ION SCV-017","OBJECT_ID":"2025-052W","EPOCH":"2026-03-09T17:11:44.577024","MEAN_MOTION":15.26881798,"ECCENTRICITY":0.0023746,"INCLINATION":97.4016,"RA_OF_ASC_NODE":324.7516,"ARG_OF_PERICENTER":44.9875,"MEAN_ANOMALY":315.3282,"EPHEMERIS_TYPE":0,"CLASSIFICATION_TYPE":"U","NORAD_CAT_ID":63230,"ELEMENT_SET_NO":999,"REV_AT_EPOCH":5485,"BSTAR":0.00024539061,"MEAN_MOTION_DOT":6.457e-5,"MEAN_MOTION_DDOT":0},{"OBJECT_NAME":"STARLINK-35955","OBJECT_ID":"2025-271U","EPOCH":"2026-03-09T11:38:23.757216","MEAN_MOTION":15.30200826,"ECCENTRICITY":0.00015785,"INCLINATION":53.1575,"RA_OF_ASC_NODE":141.011,"ARG_OF_PERICENTER":77.699,"MEAN_ANOMALY":282.4188,"EPHEMERIS_TYPE":0,"CLASSIFICATION_TYPE":"U","NORAD_CAT_ID":66635,"ELEMENT_SET_NO":999,"REV_AT_EPOCH":1753,"BSTAR":0.0012593331,"MEAN_MOTION_DOT":0.00037126,"MEAN_MOTION_DDOT":0}]
