ION SCV-017             
1 63230U 25052W   26068.71648816  .00006457  00000+0  24539-3 0  9998
2 63230  97.4016 324.7516 0023746  44.9875 315.3282 15.26881798 54851
STARLINK-35955          
1 66635U 25271U   26068.48499719  .00037126  00000+0  12593-2 0  9996
2 66635  53.1575 141.0110 0001578  77.6990 282.4188 15.30200826 17537
